{
"type": "FeatureCollection",
"name": "lake-county",
"crs": { "type": "name", "properties": { "name": "urn:ogc:def:crs:EPSG::4269" } },
"features": [
{ "type": "Feature", "properties": { "STATEFP": "06", "COUNTYFP": "033", "COUNTYNS": "00277281", "AFFGEOID": "0500000US06033", "GEOID": "06033", "NAME": "Lake", "NAMELSAD": "Lake County", "STUSPS": "CA", "STATE_NAME": "California", "LSAD": "06", "ALAND": 3250647503.0, "AWATER": 189100323.0 }, "geometry": { "type": "MultiPolygon", "coordinates": [ [ [ [ -123.085012, 39.095294 ], [ -123.078112, 39.13874 ], [ -123.077812, 39.173791 ], [ -123.045811, 39.173492 ], [ -123.040183, 39.191428 ], [ -123.01251, 39.220989 ], [ -123.01271, 39.236188 ], [ -122.994839, 39.235924 ], [ -123.00361, 39.257387 ], [ -123.004514, 39.278187 ], [ -123.019612, 39.277986 ], [ -123.019711, 39.321785 ], [ -123.037712, 39.336185 ], [ -123.037914, 39.363885 ], [ -123.048613, 39.364084 ], [ -123.057113, 39.378684 ], [ -123.056314, 39.407583 ], [ -123.075114, 39.407683 ], [ -123.063015, 39.452482 ], [ -123.063181, 39.503539 ], [ -123.045077, 39.503574 ], [ -123.025236, 39.518709 ], [ -122.936697, 39.516396 ], [ -122.936696, 39.530713 ], [ -122.89031, 39.529014 ], [ -122.885352, 39.580108 ], [ -122.772475, 39.579463 ], [ -122.735639, 39.580668 ], [ -122.736548, 39.50851 ], [ -122.732276, 39.493345 ], [ -122.732601, 39.450754 ], [ -122.741748, 39.43523 ], [ -122.739062, 39.383266 ], [ -122.78509, 39.382975 ], [ -122.743482, 39.36813 ], [ -122.76531, 39.342743 ], [ -122.775252, 39.312563 ], [ -122.758114, 39.28538 ], [ -122.712454, 39.25701 ], [ -122.691361, 39.247431 ], [ -122.661647, 39.216359 ], [ -122.63516, 39.223052 ], [ -122.578076, 39.209204 ], [ -122.573442, 39.204288 ], [ -122.515331, 39.209215 ], [ -122.513788, 39.196007 ], [ -122.47729, 39.17395 ], [ -122.482574, 39.162927 ], [ -122.479527, 39.158038 ], [ -122.478227, 39.139782 ], [ -122.496835, 39.140501 ], [ -122.500909, 39.121075 ], [ -122.48983, 39.099677 ], [ -122.492023, 39.053503 ], [ -122.468178, 39.044761 ], [ -122.43729, 39.021357 ], [ -122.413416, 39.020218 ], [ -122.409369, 39.011317 ], [ -122.41931, 38.989177 ], [ -122.409214, 38.963001 ], [ -122.340172, 38.924246 ], [ -122.354729, 38.925225 ], [ -122.403941, 38.925289 ], [ -122.421904, 38.90377 ], [ -122.390816, 38.867963 ], [ -122.395312, 38.863994 ], [ -122.401169, 38.855781 ], [ -122.375369, 38.826453 ], [ -122.374347, 38.812208 ], [ -122.397705, 38.804866 ], [ -122.41588, 38.768205 ], [ -122.464482, 38.706054 ], [ -122.626772, 38.67078 ], [ -122.646569, 38.706177 ], [ -122.695451, 38.71309 ], [ -122.7117, 38.750763 ], [ -122.73366, 38.771711 ], [ -122.747756, 38.803344 ], [ -122.795389, 38.836634 ], [ -122.808674, 38.836643 ], [ -122.821592, 38.85014 ], [ -122.821388, 38.85792 ], [ -122.878801, 38.880879 ], [ -122.894633, 38.880832 ], [ -122.89389, 38.895524 ], [ -122.911386, 38.901529 ], [ -122.948865, 38.90022 ], [ -122.949067, 38.925442 ], [ -122.969919, 38.932663 ], [ -122.977712, 38.946693 ], [ -122.977429, 38.9829 ], [ -122.986683, 38.983009 ], [ -122.986663, 38.988898 ], [ -122.98664, 38.997283 ], [ -123.028035, 38.996593 ], [ -123.056212, 39.021096 ], [ -123.065188, 39.053187 ], [ -123.065149, 39.059183 ], [ -123.093013, 39.071994 ], [ -123.085012, 39.095294 ] ] ] ] } }
]
}
